HMU-SAT2                
1 67688U 98067YE  26177.55558758  .00061199  00000+0  62439-3 0  9998
2 67688  51.6269 245.6251 0004919 250.0955 109.9510 15.64472126 21680
CREW DRAGON 12          
1 67796U 26031A   26177.47752734  .00007960  00000+0  15019-3 0  9999
2 67796  51.6324 254.1054 0004309 234.2414 125.8174 15.49438531625548
PROGRESS-MS 33          
1 68319U 26058A   26177.47752734  .00007960  00000+0  15019-3 0  9990
2 68319  51.6324 254.1054 0004309 234.2414 125.8174 15.49438531661001
CYGNUS NG-24            
1 68689U 26079A   26177.47752734  .00007960  00000+0  15019-3 0  9993
2 68689  51.6324 254.1055 0004309 234.2414 125.8174 15.49438531678730
PROGRESS-MS 34          
1 68837U 26093A   26177.47752734  .00007960  00000+0  15019-3 0  9994
2 68837  51.6324 254.1055 0004309 234.2414 125.8174 15.49438531696465
TIANZHOU-10             
1 69049U 26102A   26177.57375109  .00020720  00000+0  24073-3 0  9998
2 69049  41.4690 264.8628 0007978 156.9177 203.2022 15.61214347  7403
SHENZHOU-23 (SZ-23)     
1 69180U 26113A   26177.57375109  .00020720  00000+0  24073-3 0  9996
2 69180  41.4690 264.8628 0007978 156.9177 203.2022 15.61214347295149
