[{"OBJECT_NAME":"HMU-SAT2","OBJECT_ID":"1998-067YE","EPOCH":"2026-06-26T13:20:02.766912","MEAN_MOTION":15.64472126,"ECCENTRICITY":0.0004919,"INCLINATION":51.6269,"RA_OF_ASC_NODE":245.6251,"ARG_OF_PERICENTER":250.0955,"MEAN_ANOMALY":109.951,"EPHEMERIS_TYPE":0,"CLASSIFICATION_TYPE":"U","NORAD_CAT_ID":67688,"ELEMENT_SET_NO":999,"REV_AT_EPOCH":2168,"BSTAR":0.00062439,"MEAN_MOTION_DOT":0.00061199,"MEAN_MOTION_DDOT":0},{"OBJECT_NAME":"CREW DRAGON 12","OBJECT_ID":"2026-031A","EPOCH":"2026-06-26T11:27:38.362176","MEAN_MOTION":15.49438531,"ECCENTRICITY":0.0004309,"INCLINATION":51.6324,"RA_OF_ASC_NODE":254.1054,"ARG_OF_PERICENTER":234.2414,"MEAN_ANOMALY":125.8174,"EPHEMERIS_TYPE":0,"CLASSIFICATION_TYPE":"U","NORAD_CAT_ID":67796,"ELEMENT_SET_NO":999,"REV_AT_EPOCH":62554,"BSTAR":0.00015019,"MEAN_MOTION_DOT":7.96e-5,"MEAN_MOTION_DDOT":0},{"OBJECT_NAME":"PROGRESS-MS 33","OBJECT_ID":"2026-058A","EPOCH":"2026-06-26T11:27:38.362176","MEAN_MOTION":15.49438531,"ECCENTRICITY":0.0004309,"INCLINATION":51.6324,"RA_OF_ASC_NODE":254.1054,"ARG_OF_PERICENTER":234.2414,"MEAN_ANOMALY":125.8174,"EPHEMERIS_TYPE":0,"CLASSIFICATION_TYPE":"U","NORAD_CAT_ID":68319,"ELEMENT_SET_NO":999,"REV_AT_EPOCH":66100,"BSTAR":0.00015019,"MEAN_MOTION_DOT":7.96e-5,"MEAN_MOTION_DDOT":0},{"OBJECT_NAME":"CYGNUS NG-24","OBJECT_ID":"2026-079A","EPOCH":"2026-06-26T11:27:38.362176","MEAN_MOTION":15.49438531,"ECCENTRICITY":0.00043091,"INCLINATION":51.6324,"RA_OF_ASC_NODE":254.1055,"ARG_OF_PERICENTER":234.2414,"MEAN_ANOMALY":125.8174,"EPHEMERIS_TYPE":0,"CLASSIFICATION_TYPE":"U","NORAD_CAT_ID":68689,"ELEMENT_SET_NO":999,"REV_AT_EPOCH":67873,"BSTAR":0.00015018834,"MEAN_MOTION_DOT":7.96e-5,"MEAN_MOTION_DDOT":0},{"OBJECT_NAME":"PROGRESS-MS 34","OBJECT_ID":"2026-093A","EPOCH":"2026-06-26T11:27:38.362176","MEAN_MOTION":15.49438531,"ECCENTRICITY":0.00043091,"INCLINATION":51.6324,"RA_OF_ASC_NODE":254.1055,"ARG_OF_PERICENTER":234.2414,"MEAN_ANOMALY":125.8174,"EPHEMERIS_TYPE":0,"CLASSIFICATION_TYPE":"U","NORAD_CAT_ID":68837,"ELEMENT_SET_NO":999,"REV_AT_EPOCH":69646,"BSTAR":0.00015018834,"MEAN_MOTION_DOT":7.96e-5,"MEAN_MOTION_DDOT":0},{"OBJECT_NAME":"TIANZHOU-10","OBJECT_ID":"2026-102A","EPOCH":"2026-06-26T13:46:12.094176","MEAN_MOTION":15.61214347,"ECCENTRICITY":0.00079788,"INCLINATION":41.469,"RA_OF_ASC_NODE":264.8628,"ARG_OF_PERICENTER":156.9177,"MEAN_ANOMALY":203.2022,"EPHEMERIS_TYPE":0,"CLASSIFICATION_TYPE":"U","NORAD_CAT_ID":69049,"ELEMENT_SET_NO":999,"REV_AT_EPOCH":740,"BSTAR":0.00024073428,"MEAN_MOTION_DOT":0.0002072,"MEAN_MOTION_DDOT":0},{"OBJECT_NAME":"SHENZHOU-23 (SZ-23)","OBJECT_ID":"2026-113A","EPOCH":"2026-06-26T13:46:12.094176","MEAN_MOTION":15.61214347,"ECCENTRICITY":0.00079788,"INCLINATION":41.469,"RA_OF_ASC_NODE":264.8628,"ARG_OF_PERICENTER":156.9177,"MEAN_ANOMALY":203.2022,"EPHEMERIS_TYPE":0,"CLASSIFICATION_TYPE":"U","NORAD_CAT_ID":69180,"ELEMENT_SET_NO":999,"REV_AT_EPOCH":29514,"BSTAR":0.00024073428,"MEAN_MOTION_DOT":0.0002072,"MEAN_MOTION_DDOT":0}]
